[{"OBJECT_NAME":"ONEWEB-0381","OBJECT_ID":"2021-090AE","EPOCH":"2026-03-09T14:43:59.550816","MEAN_MOTION":13.20769924,"ECCENTRICITY":0.0001429,"INCLINATION":87.9172,"RA_OF_ASC_NODE":294.3208,"ARG_OF_PERICENTER":76.7919,"MEAN_ANOMALY":283.3374,"EPHEMERIS_TYPE":0,"CLASSIFICATION_TYPE":"U","NORAD_CAT_ID":49307,"ELEMENT_SET_NO":999,"REV_AT_EPOCH":21668,"BSTAR":0.00010085,"MEAN_MOTION_DOT":5.4e-7,"MEAN_MOTION_DDOT":0},{"OBJECT_NAME":"DELTA 1 DEB","OBJECT_ID":"1973-086EJ","EPOCH":"2026-03-09T17:00:37.856736","MEAN_MOTION":13.06963556,"ECCENTRICITY":0.00866905,"INCLINATION":101.6482,"RA_OF_ASC_NODE":113.4494,"ARG_OF_PERICENTER":353.8115,"MEAN_ANOMALY":125.442,"EPHEMERIS_TYPE":0,"CLASSIFICATION_TYPE":"U","NORAD_CAT_ID":7170,"ELEMENT_SET_NO":999,"REV_AT_EPOCH":45116,"BSTAR":0.0029776114,"MEAN_MOTION_DOT":9.57e-6,"MEAN_MOTION_DDOT":0}]
